NORAD_CAT_ID,OBJECT_NAME,OBJECT_TYPE,EPOCH,MEAN_MOTION,ECCENTRICITY,INCLINATION,RA_OF_ASC_NODE,ARG_OF_PERICENTER,MEAN_ANOMALY,BSTAR,MEAN_MOTION_DOT,MEAN_MOTION_DDOT,TLE_LINE0,TLE_LINE1,TLE_LINE2,SEMIMAJOR_AXIS,PERIOD,APOGEE,PERIGEE,DECAYED
49410.0,STARLINK-3147,PAYLOAD,2023-02-09 19:46:32,15.0883974,0.0001146,53.2133,234.3523,91.4171,268.6953,0.00011734,1.58e-05,0.0,0 STARLINK-3147,1 49410U 21104C   23040.82399088  .00001580  00000-0  11734-3 0  9995,2 49410  53.2133 234.3523 0001146  91.4171 268.6953 15.08839740 70050,6917.881,95.438,540.539,538.953,0.0
49410.0,STARLINK-3147,PAYLOAD,2023-02-10 16:26:33,15.08839234,0.0001157,53.214,230.4875,95.1504,264.962,0.00011572,1.554e-05,0.0,0 STARLINK-3147,1 49410U 21104C   23041.68511301  .00001554  00000-0  11572-3 0  9995,2 49410  53.2140 230.4875 0001157  95.1504 264.9620 15.08839234 69098,6917.883,95.438,540.548,538.947,0.0
49410.0,STARLINK-3147,PAYLOAD,2023-02-11 09:55:48,15.08836158,0.0001109,53.2137,227.2161,101.6061,258.5056,1.9535e-05,2.3e-07,0.0,0 STARLINK-3147,1 49410U 21104C   23042.41375429  .00000023  00000-0  19535-4 0  9994,2 49410  53.2137 227.2161 0001109 101.6061 258.5056 15.08836158 70292,6917.892,95.438,540.524,538.99,0.0
49410.0,STARLINK-3147,PAYLOAD,2023-02-11 13:06:34,15.08836668,0.0001076,53.2136,226.6213,101.2157,258.8956,2.283e-05,7.6e-07,0.0,0 STARLINK-3147,1 49410U 21104C   23042.54623418  .00000076  00000-0  22830-4 0  9992,2 49410  53.2136 226.6213 0001076 101.2157 258.8956 15.08836668 69226,6917.891,95.438,540.5,539.011,0.0
49410.0,STARLINK-3147,PAYLOAD,2023-02-11 14:41:57,15.08838769,0.0001024,53.214,226.324,100.5015,259.6093,4.9363e-05,4.98e-06,0.0,0 STARLINK-3147,1 49410U 21104C   23042.61247310  .00000498  00000-0  49363-4 0  9991,2 49410  53.2140 226.3240 0001024 100.5015 259.6093 15.08838769 69232,6917.884,95.438,540.458,539.041,0.0
49410.0,STARLINK-3147,PAYLOAD,2023-02-12 12:57:21,15.08836688,9.75e-05,53.2138,222.1597,102.574,257.5361,4.6071e-05,4.45e-06,0.0,0 STARLINK-3147,1 49410U 21104C   23043.53983518  .00000445  00000-0  46071-4 0  9995,2 49410  53.2138 222.1597 0000975 102.5740 257.5361 15.08836688 70469,6917.891,95.438,540.43,539.081,0.0
49410.0,STARLINK-3147,PAYLOAD,2023-02-13 12:48:08,15.08838478,8.88e-05,53.2137,217.699,95.771,264.3383,0.0001287,1.761e-05,0.0,0 STARLINK-3147,1 49410U 21104C   23044.53343604  .00001761  00000-0  12870-3 0  9993,2 49410  53.2137 217.6990 0000888  95.7710 264.3383 15.08838478 69521,6917.885,95.438,540.364,539.136,0.0
49410.0,STARLINK-3147,PAYLOAD,2023-02-13 19:09:41,15.08845768,8.31e-05,53.2146,216.5093,93.2949,266.8138,0.00017725,2.535e-05,0.0,0 STARLINK-3147,1 49410U 21104C   23044.79839154  .00002535  00000-0  17725-3 0  9995,2 49410  53.2146 216.5093 0000831  93.2949 266.8138 15.08845768 70659,6917.863,95.437,540.303,539.153,0.0
49410.0,STARLINK-3147,PAYLOAD,2023-02-14 11:03:32,15.08837958,9.11e-05,53.2145,213.5355,89.018,271.0917,0.00014367,1.999e-05,0.0,0 STARLINK-3147,1 49410U 21104C   23045.46079730  .00001999  00000-0  14367-3 0  9998,2 49410  53.2145 213.5355 0000911  89.0180 271.0917 15.08837958 70751,6917.887,95.438,540.382,539.121,0.0
49410.0,STARLINK-3147,PAYLOAD,2023-02-14 19:00:27,15.0884653,9.34e-05,53.2148,212.0485,94.2308,265.879,0.00019988,2.895e-05,0.0,0 STARLINK-3147,1 49410U 21104C   23045.79199021  .00002895  00000-0  19988-3 0  9990,2 49410  53.2148 212.0485 0000934  94.2308 265.8790 15.08846530 70809,6917.86,95.437,540.372,539.079,0.0
49410.0,STARLINK-3147,PAYLOAD,2023-02-15 06:08:10,15.08841773,9.53e-05,53.2146,209.9653,128.5982,231.5095,6.723e-05,7.82e-06,0.0,0 STARLINK-3147,1 49410U 21104C   23046.25567321  .00000782  00000-0  67230-4 0  9991,2 49410  53.2146 209.9653 0000953 128.5982 231.5095 15.08841773 70878,6917.875,95.437,540.399,539.081,0.0
49410.0,STARLINK-3147,PAYLOAD,2023-02-15 12:29:42,15.08838759,0.0001039,53.2141,208.7756,109.6833,250.4271,8.133e-05,1.007e-05,0.0,0 STARLINK-3147,1 49410U 21104C   23046.52063571  .00001007  00000-0  81330-4 0  9997,2 49410  53.2141 208.7756 0001039 109.6833 250.4271 15.08838759 69824,6917.884,95.438,540.468,539.03,0.0
49410.0,STARLINK-3147,PAYLOAD,2023-02-15 20:26:38,15.08836819,0.0001315,53.2139,207.2885,122.2269,237.8851,0.00040139,6.105e-05,0.0,0 STARLINK-3147,1 49410U 21104C   23046.85183175  .00006105  00000-0  40139-3 0  9991,2 49410  53.2139 207.2885 0001315 122.2269 237.8851 15.08836819 69872,6917.89,95.438,540.665,538.845,0.0
49410.0,STARLINK-3147,PAYLOAD,2023-02-16 10:45:06,15.08837412,0.000121,53.2136,204.611,103.8818,256.2309,6.6366e-05,7.68e-06,0.0,0 STARLINK-3147,1 49410U 21104C   23047.44799569  .00000768  00000-0  66366-4 0  9997,2 49410  53.2136 204.6110 0001210 103.8818 256.2309 15.08837412 69963,6917.888,95.438,540.59,538.916,0.0
49410.0,STARLINK-3147,PAYLOAD,2023-02-16 13:55:52,15.08859123,0.0001676,53.2139,204.0182,123.3578,236.7574,-0.00027596,-4.68e-05,0.0,0 STARLINK-3147,1 49410U 21104C   23047.58046804 -.00004680  00000-0 -27596-3 0  9999,2 49410  53.2139 204.0182 0001676 123.3578 236.7574 15.08859123 71070,6917.822,95.436,540.846,538.528,0.0
49410.0,STARLINK-3147,PAYLOAD,2023-02-17 16:57:26,15.0884409,0.0001309,53.2139,198.9648,94.3258,265.7883,-6.7506e-05,-1.362e-05,0.0,0 STARLINK-3147,1 49410U 21104C   23048.70655481 -.00001362  00000-0 -67506-4 0  9991,2 49410  53.2139 198.9648 0001309  94.3258 265.7883 15.08844090 71244,6917.868,95.437,540.638,538.827,0.0
49410.0,STARLINK-3147,PAYLOAD,2023-02-17 18:32:49,15.08838986,0.0001075,53.2146,198.6677,88.817,271.2945,-2.4682e-05,-6.81e-06,0.0,0 STARLINK-3147,1 49410U 21104C   23048.77279763 -.00000681  00000-0 -24682-4 0  9994,2 49410  53.2146 198.6677 0001075  88.8170 271.2945 15.08838986 70160,6917.883,95.438,540.492,539.005,0.0
49410.0,STARLINK-3147,PAYLOAD,2023-02-18 12:02:05,15.08823734,0.0001229,53.2149,195.3966,90.3553,269.758,-2.3571e-05,-6.63e-06,0.0,0 STARLINK-3147,1 49410U 21104C   23049.50145140 -.00000663  00000-0 -23571-4 0  9993,2 49410  53.2149 195.3966 0001229  90.3553 269.7580 15.08823734 70276,6917.93,95.439,540.645,538.945,0.0
49410.0,STARLINK-3147,PAYLOAD,2023-02-18 18:23:37,15.08835821,0.0001166,53.2157,194.2066,90.0329,270.0797,6.6299e-05,7.67e-06,0.0,0 STARLINK-3147,1 49410U 21104C   23049.76640307  .00000767  00000-0  66299-4 0  9993,2 49410  53.2157 194.2066 0001166  90.0329 270.0797 15.08835821 71403,6917.893,95.438,540.565,538.952,0.0
49410.0,STARLINK-3147,PAYLOAD,2023-02-19 11:52:51,15.08832149,0.0001086,53.2157,190.9358,90.1889,269.9227,0.00010377,1.364e-05,0.0,0 STARLINK-3147,1 49410U 21104C   23050.49504552  .00001364  00000-0  10377-3 0  9995,2 49410  53.2157 190.9358 0001086  90.1889 269.9227 15.08832149 70429,6917.904,95.438,540.521,539.018,0.0
49410.0,STARLINK-3147,PAYLOAD,2023-02-20 02:11:19,15.08836939,0.000113,53.2158,188.2591,91.7222,268.39,0.00013437,1.851e-05,0.0,0 STARLINK-3147,1 49410U 21104C   23051.09120199  .00001851  00000-0  13437-3 0  9994,2 49410  53.2158 188.2591 0001130  91.7222 268.3900 15.08836939 71600,6917.89,95.438,540.536,538.973,0.0
49410.0,STARLINK-3147,PAYLOAD,2023-02-20 13:19:02,15.08838073,0.0001002,53.215,186.1799,100.7502,259.3603,2.166e-06,-2.53e-06,0.0,0 STARLINK-3147,1 49410U 21104C   23051.55488726 -.00000253  00000-0  21660-5 0  9993,2 49410  53.2150 186.1799 0001002 100.7502 259.3603 15.08838073 70586,6917.886,95.438,540.444,539.058,0.0
49410.0,STARLINK-3147,PAYLOAD,2023-02-21 14:45:11,15.08845279,0.0001151,53.2145,181.4215,86.4049,273.7075,6.6035e-05,7.63e-06,0.0,0 STARLINK-3147,1 49410U 21104C   23052.61471909  .00000763  00000-0  66035-4 0  9995,2 49410  53.2145 181.4215 0001151  86.4049 273.7075 15.08845279 71830,6917.864,95.437,540.525,538.933,0.0
49410.0,STARLINK-3147,PAYLOAD,2023-02-22 01:52:52,15.08854896,0.0001129,53.2141,179.3394,92.6699,267.4422,1.6695e-05,-2.2e-07,0.0,0 STARLINK-3147,1 49410U 21104C   23053.07839093 -.00000022  00000-0  16695-4 0  9994,2 49410  53.2141 179.3394 0001129  92.6699 267.4422 15.08854896 71904,6917.835,95.437,540.481,538.919,0.0
49410.0,STARLINK-3147,PAYLOAD,2023-02-22 13:00:35,15.08840299,0.0001184,53.2151,177.2563,106.4665,253.6457,3.9673e-05,3.44e-06,0.0,0 STARLINK-3147,1 49410U 21104C   23053.54207798  .00000344  00000-0  39673-4 0  9994,2 49410  53.2151 177.2563 0001184 106.4665 253.6457 15.08840299 70881,6917.879,95.438,540.564,538.925,0.0
49410.0,STARLINK-3147,PAYLOAD,2023-02-22 16:11:21,15.08850708,0.000138,53.2154,176.6592,117.6708,242.4425,2.0928e-05,4.5e-07,0.0,0 STARLINK-3147,1 49410U 21104C   23053.67455111  .00000045  00000-0  20928-4 0  9993,2 49410  53.2154 176.6592 0001380 117.6708 242.4425 15.08850708 71999,6917.848,95.437,540.667,538.758,0.0
49410.0,STARLINK-3147,PAYLOAD,2023-02-23 01:43:41,15.08831315,0.0001638,53.2145,174.8788,85.8973,274.2206,-7.2677e-05,-1.444e-05,0.0,0 STARLINK-3147,1 49410U 21104C   23054.07200909 -.00001444  00000-0 -72677-4 0  9995,2 49410  53.2145 174.8788 0001638  85.8973 274.2206 15.08831315 72053,6917.907,95.438,540.905,538.639,0.0
49410.0,STARLINK-3147,PAYLOAD,2023-02-23 11:16:00,15.08834761,0.0001082,53.2147,173.0931,98.5024,261.6091,-0.00012271,-2.24e-05,0.0,0 STARLINK-3147,1 49410U 21104C   23054.46944814 -.00002240  00000-0 -12271-3 0  9996,2 49410  53.2147 173.0931 0001082  98.5024 261.6091 15.08834761 71023,6917.896,95.438,540.51,539.013,0.0
49410.0,STARLINK-3147,PAYLOAD,2023-02-23 19:12:55,15.08846334,9.83e-05,53.2146,171.6074,91.93,268.1805,1.156e-05,-1.04e-06,0.0,0 STARLINK-3147,1 49410U 21104C   23054.80063733 -.00000104  00000-0  11560-4 0  9993,2 49410  53.2146 171.6074 0000983  91.9300 268.1805 15.08846334 72167,6917.861,95.437,540.406,539.046,0.0
49410.0,STARLINK-3147,PAYLOAD,2023-02-24 03:09:51,15.08836237,0.0001451,53.2139,170.1218,79.3222,280.7934,4.811e-05,4.78e-06,0.0,0 STARLINK-3147,1 49410U 21104C   23055.13184356  .00000478  00000-0  48110-4 0  9999,2 49410  53.2139 170.1218 0001451  79.3222 280.7934 15.08836237 72217,6917.892,95.438,540.761,538.753,0.0
